QZS-1R                  
1 49336U 21096A   23289.78987035 -.00000182  00000+0  00000+0 0  9994
2 49336  35.4410  94.2643 0746651 270.0438  80.2093  1.00278454  7230
